COSMOS 2251 DEB         
1 37120U 93036BGS 17345.11823225  .00001474  00000-0  48196-3 0  9995
2 37120  74.0168 276.6293 0054878 311.3604  48.2836 14.38581798238161
